[{"OBJECT_NAME":"STARLINK-4347","OBJECT_ID":"2022-077AK","EPOCH":"2026-03-09T22:19:15.004992","MEAN_MOTION":15.01261216,"ECCENTRICITY":0.00027224,"INCLINATION":97.6031,"RA_OF_ASC_NODE":250.4472,"ARG_OF_PERICENTER":150.2729,"MEAN_ANOMALY":209.8651,"EPHEMERIS_TYPE":0,"CLASSIFICATION_TYPE":"U","NORAD_CAT_ID":53076,"ELEMENT_SET_NO":999,"REV_AT_EPOCH":20095,"BSTAR":2.0561618e-5,"MEAN_MOTION_DOT":2.06e-6,"MEAN_MOTION_DDOT":0},{"OBJECT_NAME":"FENGYUN 1C DEB","OBJECT_ID":"1999-025BKG","EPOCH":"2026-03-07T13:45:43.096608","MEAN_MOTION":14.85582818,"ECCENTRICITY":0.0064954,"INCLINATION":96.5618,"RA_OF_ASC_NODE":101.964,"ARG_OF_PERICENTER":251.088,"MEAN_ANOMALY":261.3714,"EPHEMERIS_TYPE":0,"CLASSIFICATION_TYPE":"U","NORAD_CAT_ID":31202,"ELEMENT_SET_NO":999,"REV_AT_EPOCH":335,"BSTAR":0.0013766,"MEAN_MOTION_DOT":0.00012341,"MEAN_MOTION_DDOT":0}]
